{
  "type": "FeatureCollection",
  "features": [
    {
      "type": "Feature",
      "properties": {
        "norad_id": 32275,
        "name": "COSMOS 2433 (720)",
        "group": "glo-ops",
        "lat": -64.24492695253551,
        "lon": -107.54203012055902,
        "alt_km": 19123.81527629001,
        "timestamp": "2025-12-17T04:57:44.628423+00:00",
        "meta_object_name": "COSMOS 2433 (720)",
        "meta_object_id": "2007-052A",
        "meta_epoch": "2025-12-14T23:11:38.718240",
        "meta_mean_motion": 2.13103955,
        "meta_eccentricity": 0.00054201,
        "meta_inclination": 65.6819,
        "meta_ra_of_asc_node": 322.1305,
        "meta_arg_of_pericenter": 253.5649,
        "meta_mean_anomaly": 106.3736,
        "meta_ephemeris_type": 0,
        "meta_classification_type": "U",
        "meta_norad_cat_id": 32275,
        "meta_element_set_no": 999,
        "meta_rev_at_epoch": 14113,
        "meta_bstar": 0,
        "meta_mean_motion_dot": -6.5e-07,
        "meta_mean_motion_ddot": 0,
        "tle_line1": "1 32275U 07052A   25348.96642035 -.00000065  00000+0  00000+0 0  9990",
        "tle_line2": "2 32275  65.6819 322.1305 0005420 253.5649 106.3736  2.13103955141132"
      },
      "geometry": {
        "type": "Point",
        "coordinates": [
          -107.54203012055902,
          -64.24492695253551
        ]
      }
    },
    {
      "type": "Feature",
      "properties": {
        "norad_id": 32276,
        "name": "COSMOS 2432 (719)",
        "group": "glo-ops",
        "lat": -38.46140503030377,
        "lon": 163.19899408540186,
        "alt_km": 19134.343576523574,
        "timestamp": "2025-12-17T04:57:44.628445+00:00",
        "meta_object_name": "COSMOS 2432 (719)",
        "meta_object_id": "2007-052B",
        "meta_epoch": "2025-12-15T06:31:38.583840",
        "meta_mean_motion": 2.13103103,
        "meta_eccentricity": 0.00112605,
        "meta_inclination": 65.6973,
        "meta_ra_of_asc_node": 322.2446,
        "meta_arg_of_pericenter": 312.4858,
        "meta_mean_anomaly": 226.3212,
        "meta_ephemeris_type": 0,
        "meta_classification_type": "U",
        "meta_norad_cat_id": 32276,
        "meta_element_set_no": 999,
        "meta_rev_at_epoch": 14116,
        "meta_bstar": 0,
        "meta_mean_motion_dot": -6.6e-07,
        "meta_mean_motion_ddot": 0,
        "tle_line1": "1 32276U 07052B   25349.27197435 -.00000066  00000+0  00000+0 0  9996",
        "tle_line2": "2 32276  65.6973 322.2446 0011260 312.4858 226.3212  2.13103103141167"
      },
      "geometry": {
        "type": "Point",
        "coordinates": [
          163.19899408540186,
          -38.46140503030377
        ]
      }
    },
    {
      "type": "Feature",
      "properties": {
        "norad_id": 32393,
        "name": "COSMOS 2434 (721)",
        "group": "glo-ops",
        "lat": 9.624259522779624,
        "lon": 13.374144735735241,
        "alt_km": 19130.749040560775,
        "timestamp": "2025-12-17T04:57:44.628457+00:00",
        "meta_object_name": "COSMOS 2434 (721)",
        "meta_object_id": "2007-065A",
        "meta_epoch": "2025-12-15T08:26:38.759136",
        "meta_mean_motion": 2.13101367,
        "meta_eccentricity": 0.00044341,
        "meta_inclination": 64.3148,
        "meta_ra_of_asc_node": 198.1152,
        "meta_arg_of_pericenter": 71.4602,
        "meta_mean_anomaly": 114.7825,
        "meta_ephemeris_type": 0,
        "meta_classification_type": "U",
        "meta_norad_cat_id": 32393,
        "meta_element_set_no": 999,
        "meta_rev_at_epoch": 13985,
        "meta_bstar": 0,
        "meta_mean_motion_dot": 1.05e-06,
        "meta_mean_motion_ddot": 0,
        "tle_line1": "1 32393U 07065A   25349.35183749  .00000105  00000+0  00000+0 0  9995",
        "tle_line2": "2 32393  64.3148 198.1152 0004434  71.4602 114.7825  2.13101367139858"
      },
      "geometry": {
        "type": "Point",
        "coordinates": [
          13.374144735735241,
          9.624259522779624
        ]
      }
    },
    {
      "type": "Feature",
      "properties": {
        "norad_id": 32395,
        "name": "COSMOS 2436 (723)",
        "group": "glo-ops",
        "lat": -49.777111030075524,
        "lon": 163.45118838280447,
        "alt_km": 19118.160953881554,
        "timestamp": "2025-12-17T04:57:44.628468+00:00",
        "meta_object_name": "COSMOS 2436 (723)",
        "meta_object_id": "2007-065C",
        "meta_epoch": "2025-12-16T08:11:52.503360",
        "meta_mean_motion": 2.13100112,
        "meta_eccentricity": 0.00177699,
        "meta_inclination": 64.3235,
        "meta_ra_of_asc_node": 198.1521,
        "meta_arg_of_pericenter": 9.2217,
        "meta_mean_anomaly": 349.3751,
        "meta_ephemeris_type": 0,
        "meta_classification_type": "U",
        "meta_norad_cat_id": 32395,
        "meta_element_set_no": 999,
        "meta_rev_at_epoch": 13982,
        "meta_bstar": 0,
        "meta_mean_motion_dot": 1.1e-06,
        "meta_mean_motion_ddot": 0,
        "tle_line1": "1 32395U 07065C   25350.34157990  .00000110  00000+0  00000+0 0  9993",
        "tle_line2": "2 32395  64.3235 198.1521 0017769   9.2217 349.3751  2.13100112139821"
      },
      "geometry": {
        "type": "Point",
        "coordinates": [
          163.45118838280447,
          -49.777111030075524
        ]
      }
    },
    {
      "type": "Feature",
      "properties": {
        "norad_id": 36111,
        "name": "COSMOS 2456 (730)",
        "group": "glo-ops",
        "lat": -30.095611795205624,
        "lon": 61.45938783617026,
        "alt_km": 19126.881315488605,
        "timestamp": "2025-12-17T04:57:44.628479+00:00",
        "meta_object_name": "COSMOS 2456 (730)",
        "meta_object_id": "2009-070A",
        "meta_epoch": "2025-12-16T18:51:14.484384",
        "meta_mean_motion": 2.13103663,
        "meta_eccentricity": 0.00031018,
        "meta_inclination": 64.903,
        "meta_ra_of_asc_node": 77.1993,
        "meta_arg_of_pericenter": 298.2452,
        "meta_mean_anomaly": 65.0199,
        "meta_ephemeris_type": 0,
        "meta_classification_type": "U",
        "meta_norad_cat_id": 36111,
        "meta_element_set_no": 999,
        "meta_rev_at_epoch": 12454,
        "meta_bstar": 0,
        "meta_mean_motion_dot": -5.4e-07,
        "meta_mean_motion_ddot": 0,
        "tle_line1": "1 36111U 09070A   25350.78558431 -.00000054  00000+0  00000+0 0  9992",
        "tle_line2": "2 36111  64.9030  77.1993 0003101 298.2452  65.0199  2.13103663124540"
      },
      "geometry": {
        "type": "Point",
        "coordinates": [
          61.45938783617026,
          -30.095611795205624
        ]
      }
    },
    {
      "type": "Feature",
      "properties": {
        "norad_id": 36112,
        "name": "COSMOS 2457 (733)",
        "group": "glo-ops",
        "lat": 64.36504311881303,
        "lon": 179.7087053921317,
        "alt_km": 19117.89210447593,
        "timestamp": "2025-12-17T04:57:44.628490+00:00",
        "meta_object_name": "COSMOS 2457 (733)",
        "meta_object_id": "2009-070B",
        "meta_epoch": "2025-12-15T22:24:14.107104",
        "meta_mean_motion": 2.13100894,
        "meta_eccentricity": 0.00046417,
        "meta_inclination": 64.8877,
        "meta_ra_of_asc_node": 77.076,
        "meta_arg_of_pericenter": 159.3644,
        "meta_mean_anomaly": 39.3126,
        "meta_ephemeris_type": 0,
        "meta_classification_type": "U",
        "meta_norad_cat_id": 36112,
        "meta_element_set_no": 999,
        "meta_rev_at_epoch": 12452,
        "meta_bstar": 0,
        "meta_mean_motion_dot": -5.8e-07,
        "meta_mean_motion_ddot": 0,
        "tle_line1": "1 36112U 09070B   25349.93349661 -.00000058  00000+0  00000+0 0  9995",
        "tle_line2": "2 36112  64.8877  77.0760 0004641 159.3644  39.3126  2.13100894124525"
      },
      "geometry": {
        "type": "Point",
        "coordinates": [
          179.7087053921317,
          64.36504311881303
        ]
      }
    },
    {
      "type": "Feature",
      "properties": {
        "norad_id": 36402,
        "name": "COSMOS 2460 (732)",
        "group": "glo-ops",
        "lat": 65.02934914065939,
        "lon": 62.69210258429014,
        "alt_km": 19129.453680387498,
        "timestamp": "2025-12-17T04:57:44.628500+00:00",
        "meta_object_name": "COSMOS 2460 (732)",
        "meta_object_id": "2010-007C",
        "meta_epoch": "2025-12-15T05:47:00.728160",
        "meta_mean_motion": 2.13106127,
        "meta_eccentricity": 0.00026664,
        "meta_inclination": 65.5278,
        "meta_ra_of_asc_node": 320.6882,
        "meta_arg_of_pericenter": 275.3459,
        "meta_mean_anomaly": 111.58,
        "meta_ephemeris_type": 0,
        "meta_classification_type": "U",
        "meta_norad_cat_id": 36402,
        "meta_element_set_no": 999,
        "meta_rev_at_epoch": 12281,
        "meta_bstar": 0,
        "meta_mean_motion_dot": -6.7e-07,
        "meta_mean_motion_ddot": 0,
        "tle_line1": "1 36402U 10007C   25349.24098065 -.00000067  00000+0  00000+0 0  9992",
        "tle_line2": "2 36402  65.5278 320.6882 0002666 275.3459 111.5800  2.13106127122817"
      },
      "geometry": {
        "type": "Point",
        "coordinates": [
          62.69210258429014,
          65.02934914065939
        ]
      }
    }
  ]
}